#dP2018 11 30  0  0  0.00000000      96 __u+U ITR00 FIT  IAC
## 2029 432000.00000000   900.00000000 58452 0.0000000000000
+   92   C01C02C03C04C05C06C07C08C09C10C11C12C13C14E01E02E03
+        E04E05E07E08E09E11E12E14E18E19E21E24E25E26E27E30G01
+        G02G03G04G05G06G07G08G09G10G11G12G13G14G15G16G17G18
+        G19G20G21G22G23G24G25G26G27G28G29G30G31G32J01J02J03
+        J07R01R02R03R04R05R07R08R09R10R11R13R14R15R16R17R18
+        R19R20R21R22R23R24R26  0  0  0  0  0  0  0  0  0  0
++         0  0  0  0  0  0  0  0  0  0  0  0  0  0  0  0  0
++         0  0  0  0  0  0  0  0  0  0  0  0  0  0  0  0  0
++         0  0  0  0  0  0  0  0  0  0  0  0  0  0  0  0  0
++         0  0  0  0  0  0  0  0  0  0  0  0  0  0  0  0  0
++         0  0  0  0  0  0  0  0  0  0  0  0  0  0  0  0  0
++         0  0  0  0  0  0  0  0  0  0  0  0  0  0  0  0  0
%c M  cc GPS ccc cccc cccc cccc cccc ccccc ccccc ccccc ccccc
%c cc cc ccc ccc cccc cccc cccc cccc ccccc ccccc ccccc ccccc
%f  0.0000000  0.000000000  0.00000000000  0.000000000000000
%f  0.0000000  0.000000000  0.00000000000  0.000000000000000
%i    0    0    0    0      0      0      0      0         0
%i    0    0    0    0      0      0      0      0         0
/*                                                          
/*   RSA / INFORMATION & ANALYSIS CENTER (IAC) OF MCC       
/*   ULTRA-RAPID DETERMINATION                              
/* PCV:IGS14_2029 OL/AL:FES2004  NONE     YN ORB:CoN CLK:CoN
*  2018 11 30 12 45  0.00000000
PC01      0.000000      0.000000      0.000000 999999.999999
PC02   4287.074848  41916.373131  -1042.640402   -136.914920
PC03 -14783.557263  39450.416669    -15.589435   -264.878914
PC04 -39629.416511  14488.169999    170.331397      0.430680
PC05  21901.968370  35991.184980  -1216.940019     87.201993
PC06 -17233.933609  37631.292531  -6751.295737    102.304444
PC07  -9433.989202  25643.353629  32323.123836   -160.202469
PC08 -23711.729082  22372.519085 -26827.991074     48.112266
PC09  -7320.168805  40201.085347   9838.379273    327.173066
PC10   6631.203071  33390.388608  25259.507227   -281.797014
PC11 -16360.626936  21721.805197  -6378.397257    -65.854183
PC12 -20914.956466   3730.938012  18210.842522    244.577006
PC13  -8255.639624  24796.317986 -33103.293919   -404.023208
PC14 -11822.456964  13558.554123 -21270.699639    345.111513
PE01 -23038.051277  -2144.968700  18467.015426   -488.986811
PE02  23014.703966   2113.554763 -18483.294319     37.228056
PE03  17288.852655  -7467.608310  22827.629665   -105.472958
PE04 -10831.321229  25368.853765 -10740.560728   -169.305480
PE05  13659.449182  14905.621769  21615.451735    150.620248
PE07  -2055.984366 -28483.447085  -7768.800236    -84.954261
PE08  10505.315760 -25500.537758  10727.980632   6452.701594
PE09   2250.820299  28476.044669   7790.377789   6602.427233
PE11   1137.960688  17100.564647 -24133.322024   5712.801078
PE12 -19293.900084  18104.233047 -13257.361611   5612.615466
PE14  23492.901599 -13044.582730 -15602.040088   6481.876071
PE18 -15828.543542  20575.196334   2273.442227   5717.592403
PE19 -17250.461991   5271.217850 -23472.815111    -10.252112
PE21 -24077.569488 -17189.108988    947.894298   -507.052784
PE24  11180.843889  21972.804601  16365.882146   6362.831730
PE25  24060.990514  17220.896422   -893.577248   1968.075760
PE26 -20333.106524  -6299.985652  20579.562667   5189.416303
PE27 -10778.535109 -21827.044348 -16831.149824    579.941190
PE30   8399.343769 -14037.908673 -24670.550407   5308.148753
PG01  11727.553172  13396.336322 -19974.002457   -121.840055
PG02  11946.073594 -14638.226388  19169.122324    -72.903552
PG03  13305.465958  23019.535290   -758.713373    165.355704
PG04 -13201.812380  22089.397699   5009.057789    -75.043580
PG05   1790.827254 -20026.588011  17129.274937      0.121783
PG06  23807.840186  -7040.031067   9502.228415    324.714649
PG07  24014.936785   6865.197693   9921.676512     79.127570
PG08  -3970.184521  23672.470609 -11131.086174   -123.953269
PG09  13122.451201   8048.150019  21599.609241    487.794934
PG10 -17172.644356  -1040.243428 -20242.002159    157.916300
PG11   5993.731803  15535.850951 -21244.938161   -694.142504
PG12  -9510.929231 -24555.411154  -4342.964523    288.160637
PG13  11826.638046 -23108.424219  -5662.527286    -83.004613
PG14 -18327.499809  16842.561894  -8708.451356    -95.226908
PG15  -1210.786488 -22695.159834 -13661.903053   -337.983893
PG16  -3984.927959  18804.747786  17972.091157     -3.973531
PG17  18416.487560  -8941.458783 -16451.564743    -24.801834
PG18    770.606272  15609.457949 -21952.271428      0.519556
PG19  18848.721572 -16501.615307  -9284.705003   -378.609953
PG20 -20609.087582  -9364.157662 -14113.130372    519.361761
PG21 -25239.963791  -3852.951989   7963.771031   -295.534449
PG22   9166.508891  23562.003206  -7972.948614   -587.024037
PG23   7006.039330  16897.716845  19419.584076   -204.840176
PG24  -6637.251090 -14972.760400 -21087.922409    -58.901746
PG25 -16778.959442 -19762.800226   6149.550379   -684.380665
PG26 -10920.451217  11193.527691  21449.042927     54.278159
PG27 -11569.561645  23682.536023  -1764.889624    -25.335111
PG28  16686.838628   4544.168026 -19513.449094    756.685836
PG29 -10419.541805 -10729.639486  21927.675819    325.381013
PG30  26624.911292   -194.566380  -1212.204700    -12.586696
PG31 -22626.630474   8060.772544  11826.205032     76.111367
PG32 -18407.509574  11147.055887 -15466.786412   -337.414447
PJ01 -18098.952158  26745.991762 -22520.223267   -255.751755
PJ02 -27410.954374  21207.553858  28771.458981     -0.825908
PJ03 -31202.098184  27294.294015  12306.937432      1.409134
PJ07 -25409.897047  33654.837105    -36.700910    273.515168
PR01   9112.607842  18172.515593  15410.571941     35.734562
PR02  10752.100563  -2585.792781  23018.028544    342.075797
PR03   5811.436557 -19693.375955  15195.798084    150.296897
PR04  -2835.012258 -25284.932016  -1937.481044    285.652232
PR05  -9337.465611 -16456.640983 -17116.858073     16.622750
PR07  -5608.015870  19977.342713 -14784.889391    -52.717385
PR08   2484.462721  25352.924216   1291.021641     20.224131
PR09 -21162.942480  -2879.370347  13913.039512     41.324815
PR10  -9089.546807   7179.472289  22702.227066     36.699894
PR11   9211.390827  14568.707929  18840.777933    -48.671443
PR13  21577.619838   3321.362776 -13207.864485    -17.414099
PR14   9256.080882  -7403.632775 -22571.327620     33.508565
PR15  -8443.299057 -14263.750078 -19364.375219     98.793496
PR16 -21537.075989 -12776.836990  -5179.512533    107.668345
PR17  18707.971495 -16101.105691   6361.832419    184.184027
PR18   5892.547084 -14857.468426  19914.391520     27.658187
PR19 -10199.095258  -5587.933167  22706.890295    -61.931862
PR20 -21503.030210   7742.565218  11296.774585   -360.785939
PR21 -18507.817964  16196.062223  -6826.865613    -17.324628
PR22  -3589.305857  13839.469301 -21085.081799    -64.615490
PR23  13997.408103   2185.372821 -21214.738370    193.891822
PR24  21664.517509  -8989.446016 -10055.490257   -174.359546
PR26 -20928.105877   7035.819748  12813.832095 999999.999999
EOF
